ONEWEB-0647             
1 56079U 23043AK  25328.37880774  .00000190  00000+0  47076-3 0  9999
2 56079  87.8975 300.1019 0002002  88.6383 271.4977 13.15547278129492
ONEWEB-0651             
1 56080U 23043AL  25328.37405771  .00000195  00000+0  48471-3 0  9996
2 56080  87.8969 300.0964 0001704  91.0743 269.0582 13.15548496130693
ONEWEB-0718             
1 56081U 23043AM  25328.36929382  .00000244  00000+0  61538-3 0  9999
2 56081  87.8975 300.0773 0001843  67.4862 292.6463 13.15547241129507
ONEWEB-0561             
1 56710U 23068A   25328.42717556 -.00000054  00000+0 -16433-3 0  9995
2 56710  87.9183 315.2869 0002048 100.7455 259.3908 13.20772883122470
ONEWEB-0668             
1 56711U 23068B   25328.38910566  .00000021  00000+0  22426-4 0  9999
2 56711  87.9044 269.5357 0001588  60.3094 299.8195 13.16588732124830
ONEWEB-0676             
1 56712U 23068C   25328.39704514  .00000007  00000+0 -15304-4 0  9997
2 56712  87.9031 269.5584 0001935  80.7571 279.3779 13.16593983124757
ONEWEB-0677             
1 56713U 23068D   25328.41611189  .00000061  00000+0  11893-3 0  9993
2 56713  87.9192 315.2703 0001784  91.8666 268.2672 13.20770347122773
ONEWEB-0678             
1 56714U 23068E   25328.33760639 -.00000034  00000+0 -12392-3 0  9997
2 56714  87.8980 300.0589 0002238  86.9656 273.1730 13.15547234122356
ONEWEB-0679             
1 56715U 23068F   25328.35585529  .00000154  00000+0  36968-3 0  9999
2 56715  87.9023 269.5514 0001336  80.2801 279.8481 13.16596527124774
ONEWEB-0680             
1 56716U 23068G   25328.33787686  .00000067  00000+0  13113-3 0  9996
2 56716  87.9203 284.8189 0001421  67.8089 292.3195 13.21827445124030
ONEWEB-0681             
1 56717U 23068H   25328.39300581 -.00000077  00000+0 -21815-3 0  9999
2 56717  87.9197 284.8249 0001888 114.6282 245.5048 13.21827401124032
ONEWEB-0682             
1 56718U 23068J   25328.43980479  .00000050  00000+0  98932-4 0  9999
2 56718  87.8969 300.0539 0001442  75.3514 284.7776 13.15550724122539
ONEWEB-0683             
1 56719U 23068K   25328.38514924  .00000141  00000+0  34010-3 0  9999
2 56719  87.8984 300.0471 0001703  77.0147 283.1173 13.15548209122497
ONEWEB-0684             
1 56720U 23068L   25328.39306826  .00000080  00000+0  17795-3 0  9995
2 56720  87.8982 300.0402 0003282  74.7304 285.4189 13.15550186122325
ONEWEB-0686             
1 56721U 23068M   25328.36234475  .00000237  00000+0  59982-3 0  9991
2 56721  87.9020 269.5848 0002019  67.7833 292.3511 13.15055680124764
ONEWEB-0694             
1 56722U 23068N   25328.32262943  .00000015  00000+0  67786-5 0  9996
2 56722  87.9039 269.5326 0001634  64.5782 295.5518 13.16593723124810
ONEWEB-0696             
1 56723U 23068P   25328.42634381 -.00000041  00000+0 -14214-3 0  9994
2 56723  87.8969 300.0883 0002296  84.1275 276.0117 13.15547859122445
