[{"OBJECT_NAME":"ONEWEB-0647","OBJECT_ID":"2023-043AK","EPOCH":"2025-11-24T09:05:28.988736","MEAN_MOTION":13.15547278,"ECCENTRICITY":0.0002002,"INCLINATION":87.8975,"RA_OF_ASC_NODE":300.1019,"ARG_OF_PERICENTER":88.6383,"MEAN_ANOMALY":271.4977,"EPHEMERIS_TYPE":0,"CLASSIFICATION_TYPE":"U","NORAD_CAT_ID":56079,"ELEMENT_SET_NO":999,"REV_AT_EPOCH":12949,"BSTAR":0.00047076,"MEAN_MOTION_DOT":1.9e-6,"MEAN_MOTION_DDOT":0},{"OBJECT_NAME":"ONEWEB-0651","OBJECT_ID":"2023-043AL","EPOCH":"2025-11-24T08:58:38.586144","MEAN_MOTION":13.15548496,"ECCENTRICITY":0.0001704,"INCLINATION":87.8969,"RA_OF_ASC_NODE":300.0964,"ARG_OF_PERICENTER":91.0743,"MEAN_ANOMALY":269.0582,"EPHEMERIS_TYPE":0,"CLASSIFICATION_TYPE":"U","NORAD_CAT_ID":56080,"ELEMENT_SET_NO":999,"REV_AT_EPOCH":13069,"BSTAR":0.00048471,"MEAN_MOTION_DOT":1.95e-6,"MEAN_MOTION_DDOT":0},{"OBJECT_NAME":"ONEWEB-0718","OBJECT_ID":"2023-043AM","EPOCH":"2025-11-24T08:51:46.986048","MEAN_MOTION":13.15547241,"ECCENTRICITY":0.0001843,"INCLINATION":87.8975,"RA_OF_ASC_NODE":300.0773,"ARG_OF_PERICENTER":67.4862,"MEAN_ANOMALY":292.6463,"EPHEMERIS_TYPE":0,"CLASSIFICATION_TYPE":"U","NORAD_CAT_ID":56081,"ELEMENT_SET_NO":999,"REV_AT_EPOCH":12950,"BSTAR":0.00061538,"MEAN_MOTION_DOT":2.44e-6,"MEAN_MOTION_DDOT":0},{"OBJECT_NAME":"ONEWEB-0561","OBJECT_ID":"2023-068A","EPOCH":"2025-11-24T10:15:07.968384","MEAN_MOTION":13.20772883,"ECCENTRICITY":0.0002048,"INCLINATION":87.9183,"RA_OF_ASC_NODE":315.2869,"ARG_OF_PERICENTER":100.7455,"MEAN_ANOMALY":259.3908,"EPHEMERIS_TYPE":0,"CLASSIFICATION_TYPE":"U","NORAD_CAT_ID":56710,"ELEMENT_SET_NO":999,"REV_AT_EPOCH":12247,"BSTAR":-0.00016433,"MEAN_MOTION_DOT":-5.4e-7,"MEAN_MOTION_DDOT":0},{"OBJECT_NAME":"ONEWEB-0668","OBJECT_ID":"2023-068B","EPOCH":"2025-11-24T09:20:18.729024","MEAN_MOTION":13.16588732,"ECCENTRICITY":0.0001588,"INCLINATION":87.9044,"RA_OF_ASC_NODE":269.5357,"ARG_OF_PERICENTER":60.3094,"MEAN_ANOMALY":299.8195,"EPHEMERIS_TYPE":0,"CLASSIFICATION_TYPE":"U","NORAD_CAT_ID":56711,"ELEMENT_SET_NO":999,"REV_AT_EPOCH":12483,"BSTAR":2.2426e-5,"MEAN_MOTION_DOT":2.1e-7,"MEAN_MOTION_DDOT":0},{"OBJECT_NAME":"ONEWEB-0676","OBJECT_ID":"2023-068C","EPOCH":"2025-11-24T09:31:44.700096","MEAN_MOTION":13.16593983,"ECCENTRICITY":0.0001935,"INCLINATION":87.9031,"RA_OF_ASC_NODE":269.5584,"ARG_OF_PERICENTER":80.7571,"MEAN_ANOMALY":279.3779,"EPHEMERIS_TYPE":0,"CLASSIFICATION_TYPE":"U","NORAD_CAT_ID":56712,"ELEMENT_SET_NO":999,"REV_AT_EPOCH":12475,"BSTAR":-1.5304e-5,"MEAN_MOTION_DOT":7.0e-8,"MEAN_MOTION_DDOT":0},{"OBJECT_NAME":"ONEWEB-0677","OBJECT_ID":"2023-068D","EPOCH":"2025-11-24T09:59:12.067296","MEAN_MOTION":13.20770347,"ECCENTRICITY":0.0001784,"INCLINATION":87.9192,"RA_OF_ASC_NODE":315.2703,"ARG_OF_PERICENTER":91.8666,"MEAN_ANOMALY":268.2672,"EPHEMERIS_TYPE":0,"CLASSIFICATION_TYPE":"U","NORAD_CAT_ID":56713,"ELEMENT_SET_NO":999,"REV_AT_EPOCH":12277,"BSTAR":0.00011893,"MEAN_MOTION_DOT":6.1e-7,"MEAN_MOTION_DDOT":0},{"OBJECT_NAME":"ONEWEB-0678","OBJECT_ID":"2023-068E","EPOCH":"2025-11-24T08:06:09.192096","MEAN_MOTION":13.15547234,"ECCENTRICITY":0.0002238,"INCLINATION":87.898,"RA_OF_ASC_NODE":300.0589,"ARG_OF_PERICENTER":86.9656,"MEAN_ANOMALY":273.173,"EPHEMERIS_TYPE":0,"CLASSIFICATION_TYPE":"U","NORAD_CAT_ID":56714,"ELEMENT_SET_NO":999,"REV_AT_EPOCH":12235,"BSTAR":-0.00012392,"MEAN_MOTION_DOT":-3.4e-7,"MEAN_MOTION_DDOT":0},{"OBJECT_NAME":"ONEWEB-0679","OBJECT_ID":"2023-068F","EPOCH":"2025-11-24T08:32:25.897056","MEAN_MOTION":13.16596527,"ECCENTRICITY":0.0001336,"INCLINATION":87.9023,"RA_OF_ASC_NODE":269.5514,"ARG_OF_PERICENTER":80.2801,"MEAN_ANOMALY":279.8481,"EPHEMERIS_TYPE":0,"CLASSIFICATION_TYPE":"U","NORAD_CAT_ID":56715,"ELEMENT_SET_NO":999,"REV_AT_EPOCH":12477,"BSTAR":0.00036968,"MEAN_MOTION_DOT":1.54e-6,"MEAN_MOTION_DDOT":0},{"OBJECT_NAME":"ONEWEB-0680","OBJECT_ID":"2023-068G","EPOCH":"2025-11-24T08:06:32.560704","MEAN_MOTION":13.21827445,"ECCENTRICITY":0.0001421,"INCLINATION":87.9203,"RA_OF_ASC_NODE":284.8189,"ARG_OF_PERICENTER":67.8089,"MEAN_ANOMALY":292.3195,"EPHEMERIS_TYPE":0,"CLASSIFICATION_TYPE":"U","NORAD_CAT_ID":56716,"ELEMENT_SET_NO":999,"REV_AT_EPOCH":12403,"BSTAR":0.00013113,"MEAN_MOTION_DOT":6.7e-7,"MEAN_MOTION_DDOT":0},{"OBJECT_NAME":"ONEWEB-0681","OBJECT_ID":"2023-068H","EPOCH":"2025-11-24T09:25:55.701984","MEAN_MOTION":13.21827401,"ECCENTRICITY":0.0001888,"INCLINATION":87.9197,"RA_OF_ASC_NODE":284.8249,"ARG_OF_PERICENTER":114.6282,"MEAN_ANOMALY":245.5048,"EPHEMERIS_TYPE":0,"CLASSIFICATION_TYPE":"U","NORAD_CAT_ID":56717,"ELEMENT_SET_NO":999,"REV_AT_EPOCH":12403,"BSTAR":-0.00021815,"MEAN_MOTION_DOT":-7.7e-7,"MEAN_MOTION_DDOT":0},{"OBJECT_NAME":"ONEWEB-0682","OBJECT_ID":"2023-068J","EPOCH":"2025-11-24T10:33:19.133856","MEAN_MOTION":13.15550724,"ECCENTRICITY":0.0001442,"INCLINATION":87.8969,"RA_OF_ASC_NODE":300.0539,"ARG_OF_PERICENTER":75.3514,"MEAN_ANOMALY":284.7776,"EPHEMERIS_TYPE":0,"CLASSIFICATION_TYPE":"U","NORAD_CAT_ID":56718,"ELEMENT_SET_NO":999,"REV_AT_EPOCH":12253,"BSTAR":9.8932e-5,"MEAN_MOTION_DOT":5.0e-7,"MEAN_MOTION_DDOT":0},{"OBJECT_NAME":"ONEWEB-0683","OBJECT_ID":"2023-068K","EPOCH":"2025-11-24T09:14:36.894336","MEAN_MOTION":13.15548209,"ECCENTRICITY":0.0001703,"INCLINATION":87.8984,"RA_OF_ASC_NODE":300.0471,"ARG_OF_PERICENTER":77.0147,"MEAN_ANOMALY":283.1173,"EPHEMERIS_TYPE":0,"CLASSIFICATION_TYPE":"U","NORAD_CAT_ID":56719,"ELEMENT_SET_NO":999,"REV_AT_EPOCH":12249,"BSTAR":0.0003401,"MEAN_MOTION_DOT":1.41e-6,"MEAN_MOTION_DDOT":0},{"OBJECT_NAME":"ONEWEB-0684","OBJECT_ID":"2023-068L","EPOCH":"2025-11-24T09:26:01.097664","MEAN_MOTION":13.15550186,"ECCENTRICITY":0.0003282,"INCLINATION":87.8982,"RA_OF_ASC_NODE":300.0402,"ARG_OF_PERICENTER":74.7304,"MEAN_ANOMALY":285.4189,"EPHEMERIS_TYPE":0,"CLASSIFICATION_TYPE":"U","NORAD_CAT_ID":56720,"ELEMENT_SET_NO":999,"REV_AT_EPOCH":12232,"BSTAR":0.00017795,"MEAN_MOTION_DOT":8.0e-7,"MEAN_MOTION_DDOT":0},{"OBJECT_NAME":"ONEWEB-0686","OBJECT_ID":"2023-068M","EPOCH":"2025-11-24T08:41:46.586400","MEAN_MOTION":13.1505568,"ECCENTRICITY":0.0002019,"INCLINATION":87.902,"RA_OF_ASC_NODE":269.5848,"ARG_OF_PERICENTER":67.7833,"MEAN_ANOMALY":292.3511,"EPHEMERIS_TYPE":0,"CLASSIFICATION_TYPE":"U","NORAD_CAT_ID":56721,"ELEMENT_SET_NO":999,"REV_AT_EPOCH":12476,"BSTAR":0.00059982,"MEAN_MOTION_DOT":2.37e-6,"MEAN_MOTION_DDOT":0},{"OBJECT_NAME":"ONEWEB-0694","OBJECT_ID":"2023-068N","EPOCH":"2025-11-24T07:44:35.182752","MEAN_MOTION":13.16593723,"ECCENTRICITY":0.0001634,"INCLINATION":87.9039,"RA_OF_ASC_NODE":269.5326,"ARG_OF_PERICENTER":64.5782,"MEAN_ANOMALY":295.5518,"EPHEMERIS_TYPE":0,"CLASSIFICATION_TYPE":"U","NORAD_CAT_ID":56722,"ELEMENT_SET_NO":999,"REV_AT_EPOCH":12481,"BSTAR":6.7786e-6,"MEAN_MOTION_DOT":1.5e-7,"MEAN_MOTION_DDOT":0},{"OBJECT_NAME":"ONEWEB-0696","OBJECT_ID":"2023-068P","EPOCH":"2025-11-24T10:13:56.105184","MEAN_MOTION":13.15547859,"ECCENTRICITY":0.0002296,"INCLINATION":87.8969,"RA_OF_ASC_NODE":300.0883,"ARG_OF_PERICENTER":84.1275,"MEAN_ANOMALY":276.0117,"EPHEMERIS_TYPE":0,"CLASSIFICATION_TYPE":"U","NORAD_CAT_ID":56723,"ELEMENT_SET_NO":999,"REV_AT_EPOCH":12244,"BSTAR":-0.00014214,"MEAN_MOTION_DOT":-4.1e-7,"MEAN_MOTION_DDOT":0}]
